{
    "links": {
        "self": "http://www.neowsapp.com/rest/v1/neo/3315653?api_key=iIulBulltgU6a56xZRHN4H3l9WmuAYTsLGpBGhQ2"
    },
    "id": "3315653",
    "neo_reference_id": "3315653",
    "name": "(2006 CL)",
    "designation": "2006 CL",
    "nasa_jpl_url": "http://ssd.jpl.nasa.gov/sbdb.cgi?sstr=3315653",
    "absolute_magnitude_h": 25.4,
    "estimated_diameter": {
        "kilometers": {
            "estimated_diameter_min": 0.022108281,
            "estimated_diameter_max": 0.0494356193
        },
        "meters": {
            "estimated_diameter_min": 22.1082810359,
            "estimated_diameter_max": 49.435619262
        },
        "miles": {
            "estimated_diameter_min": 0.0137374447,
            "estimated_diameter_max": 0.0307178602
        },
        "feet": {
            "estimated_diameter_min": 72.5337327539,
            "estimated_diameter_max": 162.1903570994
        }
    },
    "is_potentially_hazardous_asteroid": false,
    "close_approach_data": [
        {
            "close_approach_date": "2006-01-27",
            "close_approach_date_full": "2006-Jan-27 06:31",
            "epoch_date_close_approach": 1138343460000,
            "relative_velocity": {
                "kilometers_per_second": "7.5979136985",
                "kilometers_per_hour": "27352.4893146903",
                "miles_per_hour": "16995.7731522308"
            },
            "miss_distance": {
                "astronomical": "0.0204516988",
                "lunar": "7.9557108332",
                "kilometers": "3059530.578361556",
                "miles": "1901104.1460232328"
            },
            "orbiting_body": "Earth"
        }
    ],
    "orbital_data": {
        "orbit_id": "7",
        "orbit_determination_date": "2017-04-06 09:09:10",
        "first_observation_date": "2006-02-02",
        "last_observation_date": "2006-02-07",
        "data_arc_in_days": 5,
        "observations_used": 27,
        "orbit_uncertainty": "8",
        "minimum_orbit_intersection": ".0199839",
        "jupiter_tisserand_invariant": "4.147",
        "epoch_osculation": "2453770.5",
        "eccentricity": ".4129641084107958",
        "semi_major_axis": "1.663661228007028",
        "inclination": "8.147651059469309",
        "ascending_node_longitude": "313.033098238498",
        "orbital_period": "783.7828744517506",
        "perihelion_distance": ".976628852285496",
        "perihelion_argument": "151.60241887",
        "aphelion_distance": "2.35069360372856",
        "perihelion_time": "2453743.859276728195",
        "mean_anomaly": "12.23637398885295",
        "mean_motion": ".4593108777119134",
        "equinox": "J2000",
        "orbit_class": {
            "orbit_class_type": "APO",
            "orbit_class_description": "Near-Earth asteroid orbits which cross the Earth’s orbit similar to that of 1862 Apollo",
            "orbit_class_range": "a (semi-major axis) > 1.0 AU; q (perihelion) < 1.017 AU"
        }
    },
    "is_sentry_object": false
}